[{"OBJECT_NAME":"STARLINK-4748","OBJECT_ID":"2022-114F","EPOCH":"2026-03-09T19:56:04.587360","MEAN_MOTION":15.0883633,"ECCENTRICITY":0.00017416,"INCLINATION":53.2169,"RA_OF_ASC_NODE":258.4753,"ARG_OF_PERICENTER":101.786,"MEAN_ANOMALY":258.3328,"EPHEMERIS_TYPE":0,"CLASSIFICATION_TYPE":"U","NORAD_CAT_ID":53823,"ELEMENT_SET_NO":999,"REV_AT_EPOCH":19348,"BSTAR":5.835445e-6,"MEAN_MOTION_DOT":-1.95e-6,"MEAN_MOTION_DDOT":0},{"OBJECT_NAME":"DIAMANT R\/B","OBJECT_ID":"1967-011B","EPOCH":"2026-03-09T23:01:25.838112","MEAN_MOTION":14.34400418,"ECCENTRICITY":0.03301408,"INCLINATION":39.9445,"RA_OF_ASC_NODE":294.6723,"ARG_OF_PERICENTER":69.1567,"MEAN_ANOMALY":294.4228,"EPHEMERIS_TYPE":0,"CLASSIFICATION_TYPE":"U","NORAD_CAT_ID":2671,"ELEMENT_SET_NO":999,"REV_AT_EPOCH":4127,"BSTAR":0.00063874557,"MEAN_MOTION_DOT":3.249e-5,"MEAN_MOTION_DDOT":0}]
